start=new Date('2023-07-01T00:00:00.000Z').valueOf();
sats=[{"OBJECT_NAME":"STARLINK-2451","LAUNCH_DATE":"2021-04-07","SEMIMAJOR_AXIS":"6925.351","GP_ID":"234622356","DECAY_DATE":null,"REF_FRAME":"TEME","APOAPSIS":"548.166","ELEMENT_SET_NO":"999","MEAN_ELEMENT_THEORY":"SGP4","RA_OF_ASC_NODE":"264.9982","CLASSIFICATION_TYPE":"U","REV_AT_EPOCH":"12374","RCS_SIZE":"LARGE","COUNTRY_CODE":"US","BSTAR":"0.00014433000000","OBJECT_ID":"2021-027Y","PERIOD":"95.592","OBJECT_TYPE":"PAYLOAD","MEAN_MOTION":"15.06399086","INCLINATION":"53.0532","MEAN_MOTION_DDOT":"0.0000000000000","PERIAPSIS":"546.267","MEAN_ANOMALY":"284.4915","FILE":"3945650","SITE":"AFETR","MEAN_MOTION_DOT":"0.00001869","NORAD_CAT_ID":"48114","EPOCH":"2023-06-29T11:03:12.829824","TLE_LINE2":"2 48114  53.0532 264.9982 0001371  75.6226 284.4915 15.06399086123745","ARG_OF_PERICENTER":"75.6226","TLE_LINE1":"1 48114U 21027Y   23180.46056516  .00001869  00000-0  14433-3 0  9999","TIME_SYSTEM":"UTC","CENTER_NAME":"EARTH","ECCENTRICITY":"0.00013710","EPHEMERIS_TYPE":"0"},{"ECCENTRICITY":"0.00012530","EPHEMERIS_TYPE":"0","CENTER_NAME":"EARTH","TIME_SYSTEM":"UTC","TLE_LINE1":"1 48115U 21027Z   23181.48386398  .00000293  00000-0  38575-4 0  9991","ARG_OF_PERICENTER":"89.5683","TLE_LINE2":"2 48115  53.0546 255.4034 0001253  89.5683 270.5450 15.06404666123969","EPOCH":"2023-06-30T11:36:45.847872","NORAD_CAT_ID":"48115","MEAN_MOTION_DOT":"0.00000293","SITE":"AFETR","FILE":"3946171","MEAN_ANOMALY":"270.5450","PERIAPSIS":"546.332","MEAN_MOTION_DDOT":"0.0000000000000","MEAN_MOTION":"15.06404666","INCLINATION":"53.0546","OBJECT_TYPE":"PAYLOAD","PERIOD":"95.592","OBJECT_ID":"2021-027Z","BSTAR":"0.00003857500000","COUNTRY_CODE":"US","RCS_SIZE":"LARGE","REV_AT_EPOCH":"12396","CLASSIFICATION_TYPE":"U","RA_OF_ASC_NODE":"255.4034","MEAN_ELEMENT_THEORY":"SGP4","ELEMENT_SET_NO":"999","APOAPSIS":"548.067","REF_FRAME":"TEME","GP_ID":"234635741","SEMIMAJOR_AXIS":"6925.334","DECAY_DATE":null,"LAUNCH_DATE":"2021-04-07","OBJECT_NAME":"STARLINK-2452"},{"COUNTRY_CODE":"US","BSTAR":"0.00020227000000","OBJECT_ID":"2021-027AA","RCS_SIZE":"LARGE","REV_AT_EPOCH":"12384","CLASSIFICATION_TYPE":"U","RA_OF_ASC_NODE":"264.7717","MEAN_ELEMENT_THEORY":"SGP4","REF_FRAME":"TEME","APOAPSIS":"547.798","ELEMENT_SET_NO":"999","SEMIMAJOR_AXIS":"6925.317","GP_ID":"234637865","DECAY_DATE":null,"OBJECT_NAME":"STARLINK-2454","LAUNCH_DATE":"2021-04-07","ARG_OF_PERICENTER":"83.3348","TLE_LINE1":"1 48116U 21027AA  23181.62394744  .00002734  00000-0  20227-3 0  9998","CENTER_NAME":"EARTH","TIME_SYSTEM":"UTC","EPHEMERIS_TYPE":"0","ECCENTRICITY":"0.00008890","MEAN_MOTION_DOT":"0.00002734","NORAD_CAT_ID":"48116","EPOCH":"2023-06-30T14:58:29.058816","TLE_LINE2":"2 48116  53.0534 264.7717 0000889  83.3348 276.7742 15.06410206123848","FILE":"3946240","SITE":"AFETR","PERIAPSIS":"546.567","MEAN_ANOMALY":"276.7742","OBJECT_TYPE":"PAYLOAD","MEAN_MOTION":"15.06410206","INCLINATION":"53.0534","MEAN_MOTION_DDOT":"0.0000000000000","PERIOD":"95.591"},{"REV_AT_EPOCH":"12411","RCS_SIZE":"LARGE","OBJECT_ID":"2021-027AB","BSTAR":"0.00025362000000","COUNTRY_CODE":"US","RA_OF_ASC_NODE":"245.1849","CLASSIFICATION_TYPE":"U","ELEMENT_SET_NO":"999","APOAPSIS":"547.877","REF_FRAME":"TEME","MEAN_ELEMENT_THEORY":"SGP4","LAUNCH_DATE":"2021-04-07","OBJECT_NAME":"STARLINK-2455","SEMIMAJOR_AXIS":"6925.315","GP_ID":"234635742","DECAY_DATE":null,"TLE_LINE2":"2 48117  53.0533 245.1849 0001006  83.8531 276.2573 15.06410832124111","EPOCH":"2023-06-30T12:41:46.356000","NORAD_CAT_ID":"48117","MEAN_MOTION_DOT":"0.00003499","EPHEMERIS_TYPE":"0","ECCENTRICITY":"0.00010060","CENTER_NAME":"EARTH","TIME_SYSTEM":"UTC","TLE_LINE1":"1 48117U 21027AB  23181.52900875  .00003499  00000-0  25362-3 0  9990","ARG_OF_PERICENTER":"83.8531","MEAN_ANOMALY":"276.2573","PERIAPSIS":"546.484","SITE":"AFETR","FILE":"3946171","PERIOD":"95.591","MEAN_MOTION_DDOT":"0.0000000000000","INCLINATION":"53.0533","MEAN_MOTION":"15.06410832","OBJECT_TYPE":"PAYLOAD"},{"CLASSIFICATION_TYPE":"U","RA_OF_ASC_NODE":"245.1453","COUNTRY_CODE":"US","OBJECT_ID":"2021-027AC","BSTAR":"0.00004924000000","REV_AT_EPOCH":"12411","RCS_SIZE":"LARGE","DECAY_DATE":null,"GP_ID":"234634860","SEMIMAJOR_AXIS":"6925.363","OBJECT_NAME":"STARLINK-2458","LAUNCH_DATE":"2021-04-07","MEAN_ELEMENT_THEORY":"SGP4","APOAPSIS":"547.893","REF_FRAME":"TEME","ELEMENT_SET_NO":"999","FILE":"3946152","SITE":"AFETR","MEAN_ANOMALY":"284.5759","PERIAPSIS":"546.564","TLE_LINE1":"1 48118U 21027AC  23181.54102325  .00000452  00000-0  49240-4 0  9995","ARG_OF_PERICENTER":"75.5336","EPHEMERIS_TYPE":"0","ECCENTRICITY":"0.00009590","TIME_SYSTEM":"UTC","CENTER_NAME":"EARTH","NORAD_CAT_ID":"48118","MEAN_MOTION_DOT":"0.00000452","TLE_LINE2":"2 48118  53.0544 245.1453 0000959  75.5336 284.5759 15.06395165124111","EPOCH":"2023-06-30T12:59:04.408800","OBJECT_TYPE":"PAYLOAD","MEAN_MOTION_DDOT":"0.0000000000000","MEAN_MOTION":"15.06395165","INCLINATION":"53.0544","PERIOD":"95.592"},{"MEAN_ELEMENT_THEORY":"SGP4","APOAPSIS":"547.815","REF_FRAME":"TEME","ELEMENT_SET_NO":"999","GP_ID":"234635611","DECAY_DATE":null,"SEMIMAJOR_AXIS":"6925.322","OBJECT_NAME":"STARLINK-2459","LAUNCH_DATE":"2021-04-07","COUNTRY_CODE":"US","OBJECT_ID":"2021-027AD","BSTAR":"0.00033559000000","REV_AT_EPOCH":"12412","RCS_SIZE":"LARGE","CLASSIFICATION_TYPE":"U","RA_OF_ASC_NODE":"244.8566","OBJECT_TYPE":"PAYLOAD","MEAN_MOTION_DDOT":"0.0000000000000","INCLINATION":"53.0541","MEAN_MOTION":"15.06408821","PERIOD":"95.592","TLE_LINE1":"1 48119U 21027AD  23181.60272961  .00004722  00000-0  33559-3 0  9996","ARG_OF_PERICENTER":"84.9381","EPHEMERIS_TYPE":"0","ECCENTRICITY":"0.00009080","TIME_SYSTEM":"UTC","CENTER_NAME":"EARTH","NORAD_CAT_ID":"48119","MEAN_MOTION_DOT":"0.00004722","TLE_LINE2":"2 48119  53.0541 244.8566 0000908  84.9381 275.1712 15.06408821124128","EPOCH":"2023-06-30T14:27:55.838304","FILE":"3946156","SITE":"AFETR","MEAN_ANOMALY":"275.1712","PERIAPSIS":"546.558"},{"LAUNCH_DATE":"2021-04-07","OBJECT_NAME":"STARLINK-2460","GP_ID":"234635464","SEMIMAJOR_AXIS":"6925.354","DECAY_DATE":null,"ELEMENT_SET_NO":"999","APOAPSIS":"547.846","REF_FRAME":"TEME","MEAN_ELEMENT_THEORY":"SGP4","RA_OF_ASC_NODE":"264.8384","CLASSIFICATION_TYPE":"U","RCS_SIZE":"LARGE","REV_AT_EPOCH":"12384","OBJECT_ID":"2021-027AE","BSTAR":"0.00000381400000","COUNTRY_CODE":"US","PERIOD":"95.592","MEAN_MOTION_DDOT":"0.0000000000000","INCLINATION":"53.0541","MEAN_MOTION":"15.06398315","OBJECT_TYPE":"PAYLOAD","MEAN_ANOMALY":"268.0680","PERIAPSIS":"546.591","SITE":"AFETR","FILE":"3946158","TLE_LINE2":"2 48120  53.0541 264.8384 0000906  92.0413 268.0680 15.06398315123843","EPOCH":"2023-06-30T14:37:15.458016","NORAD_CAT_ID":"48120","MEAN_MOTION_DOT":"-0.00000224","ECCENTRICITY":"0.00009060","EPHEMERIS_TYPE":"0","CENTER_NAME":"EARTH","TIME_SYSTEM":"UTC","TLE_LINE1":"1 48120U 21027AE  23181.60920669 -.00000224  00000-0  38140-5 0  9990","ARG_OF_PERICENTER":"92.0413"},{"MEAN_MOTION":"15.06419153","INCLINATION":"53.0548","MEAN_MOTION_DDOT":"0.0000000000000","OBJECT_TYPE":"PAYLOAD","PERIOD":"95.591","SITE":"AFETR","FILE":"3945721","PERIAPSIS":"546.489","MEAN_ANOMALY":"280.7209","CENTER_NAME":"EARTH","TIME_SYSTEM":"UTC","EPHEMERIS_TYPE":"0","ECCENTRICITY":"0.00009610","ARG_OF_PERICENTER":"79.3888","TLE_LINE1":"1 48121U 21027AF  23180.45274659  .00011174  00000-0  76744-3 0  9999","EPOCH":"2023-06-29T10:51:57.305376","TLE_LINE2":"2 48121  53.0548 260.0291 0000961  79.3888 280.7209 15.06419153123810","MEAN_MOTION_DOT":"0.00011174","NORAD_CAT_ID":"48121","GP_ID":"234624641","SEMIMAJOR_AXIS":"6925.290","DECAY_DATE":null,"LAUNCH_DATE":"2021-04-07","OBJECT_NAME":"STARLINK-2462","MEAN_ELEMENT_THEORY":"SGP4","ELEMENT_SET_NO":"999","REF_FRAME":"TEME","APOAPSIS":"547.820","CLASSIFICATION_TYPE":"U","RA_OF_ASC_NODE":"260.0291","BSTAR":"0.00076744000000","OBJECT_ID":"2021-027AF","COUNTRY_CODE":"US","REV_AT_EPOCH":"12381","RCS_SIZE":"LARGE"},{"RA_OF_ASC_NODE":"255.0103","CLASSIFICATION_TYPE":"U","REV_AT_EPOCH":"12388","RCS_SIZE":"LARGE","OBJECT_ID":"2021-027AG","BSTAR":"0.00077041000000","COUNTRY_CODE":"US","LAUNCH_DATE":"2021-04-07","OBJECT_NAME":"STARLINK-2463","GP_ID":"234622467","DECAY_DATE":null,"SEMIMAJOR_AXIS":"6925.266","ELEMENT_SET_NO":"999","APOAPSIS":"547.719","REF_FRAME":"TEME","MEAN_ELEMENT_THEORY":"SGP4","MEAN_ANOMALY":"263.4172","PERIAPSIS":"546.542","SITE":"AFETR","FILE":"3945659","TLE_LINE2":"2 48122  53.0539 255.0103 0000850  96.6914 263.4172 15.06427037123880","EPOCH":"2023-06-29T10:49:57.520416","NORAD_CAT_ID":"48122","MEAN_MOTION_DOT":"0.00011221","EPHEMERIS_TYPE":"0","ECCENTRICITY":"0.00008500","CENTER_NAME":"EARTH","TIME_SYSTEM":"UTC","TLE_LINE1":"1 48122U 21027AG  23180.45136019  .00011221  00000-0  77041-3 0  9991","ARG_OF_PERICENTER":"96.6914","PERIOD":"95.590","MEAN_MOTION_DDOT":"0.0000000000000","INCLINATION":"53.0539","MEAN_MOTION":"15.06427037","OBJECT_TYPE":"PAYLOAD"},{"CLASSIFICATION_TYPE":"U","RA_OF_ASC_NODE":"245.5232","COUNTRY_CODE":"US","BSTAR":"-0.00006276100000","OBJECT_ID":"2021-027AH","REV_AT_EPOCH":"12409","RCS_SIZE":"LARGE","GP_ID":"234637317","SEMIMAJOR_AXIS":"6925.358","DECAY_DATE":null,"OBJECT_NAME":"STARLINK-2464","LAUNCH_DATE":"2021-04-07","MEAN_ELEMENT_THEORY":"SGP4","REF_FRAME":"TEME","APOAPSIS":"547.650","ELEMENT_SET_NO":"999","FILE":"3946234","SITE":"AFETR","PERIAPSIS":"546.797","MEAN_ANOMALY":"294.6653","ARG_OF_PERICENTER":"65.4400","TLE_LINE1":"1 48123U 21027AH  23181.45623727 -.00001216  00000-0 -62761-4 0  9999","TIME_SYSTEM":"UTC","CENTER_NAME":"EARTH","EPHEMERIS_TYPE":"0","ECCENTRICITY":"0.00006160","MEAN_MOTION_DOT":"-0.00001216","NORAD_CAT_ID":"48123","EPOCH":"2023-06-30T10:56:58.900128","TLE_LINE2":"2 48123  53.0537 245.5232 0000616  65.4400 294.6653 15.06396849124090","OBJECT_TYPE":"PAYLOAD","INCLINATION":"53.0537","MEAN_MOTION":"15.06396849","MEAN_MOTION_DDOT":"0.0000000000000","PERIOD":"95.592"}];
